[{"OBJECT_NAME":"FLOCK 4Q-36","OBJECT_ID":"2023-174U","EPOCH":"2026-03-09T19:16:39.542880","MEAN_MOTION":15.51175537,"ECCENTRICITY":0.00077513,"INCLINATION":97.3882,"RA_OF_ASC_NODE":158.0764,"ARG_OF_PERICENTER":145.8203,"MEAN_ANOMALY":214.355,"EPHEMERIS_TYPE":0,"CLASSIFICATION_TYPE":"U","NORAD_CAT_ID":58274,"ELEMENT_SET_NO":999,"REV_AT_EPOCH":13039,"BSTAR":0.00046936157,"MEAN_MOTION_DOT":0.00027409,"MEAN_MOTION_DDOT":0},{"OBJECT_NAME":"PSLV R\/B","OBJECT_ID":"2019-089L","EPOCH":"2026-03-09T10:22:50.417472","MEAN_MOTION":15.47110778,"ECCENTRICITY":0.00206225,"INCLINATION":36.9706,"RA_OF_ASC_NODE":336.8775,"ARG_OF_PERICENTER":323.7669,"MEAN_ANOMALY":36.1691,"EPHEMERIS_TYPE":0,"CLASSIFICATION_TYPE":"U","NORAD_CAT_ID":44862,"ELEMENT_SET_NO":999,"REV_AT_EPOCH":34624,"BSTAR":0.00055946454,"MEAN_MOTION_DOT":0.00029399,"MEAN_MOTION_DDOT":0}]
